DMSP 5D-3 F16 (USA 172) 
1 28054U 03048A   26066.16598566  .00000158  00000+0  10635-3 0  9991
2 28054  98.9996  89.2741 0008157  79.0237   2.4581 14.14460862155064
METEOSAT-9 (MSG-2)      
1 28912U 05049B   26066.08982205  .00000123  00000+0  00000+0 0  9998
2 28912   9.1309  55.1553 0001569 224.3730 323.3977  1.00278827  5972
DMSP 5D-3 F17 (USA 191) 
1 29522U 06050A   26066.13235057  .00000229  00000+0  14089-3 0  9994
2 29522  98.7414  74.7795 0009915 354.2908   5.8151 14.14962516997980
FENGYUN 3A              
1 32958U 08026A   26065.56341510  .00000160  00000+0  96360-4 0  9991
2 32958  98.6795   8.3685 0009753  66.3473 293.8727 14.19545242920844
GOES 14                 
1 35491U 09033A   26066.15739094  .00000121  00000+0  00000+0 0  9997
2 35491   1.4261  84.3808 0001762 257.9935  79.3090  1.00100668  5561
DMSP 5D-3 F18 (USA 210) 
1 35951U 09057A   26066.09576639  .00000316  00000+0  18682-3 0  9996
2 35951  98.8961  47.1339 0010979 175.6471 184.4799 14.14833841845152
EWS-G2 (GOES 15)        
1 36411U 10008A   26066.09337539  .00000019  00000+0  00000+0 0  9991
2 36411   1.0152  85.0941 0002107  17.4335 159.3498  1.00269918 58611
COMS 1                  
1 36744U 10032A   26065.38725536 -.00000347  00000+0  00000+0 0  9991
2 36744   4.5407  76.8433 0001247 292.8421  62.0076  1.00271769 50053
FENGYUN 3B              
1 37214U 10059A   26066.19030627  .00000339  00000+0  19888-3 0  9991
2 37214  98.9767 111.7100 0023029 114.9716 332.1467 14.14817972793000
SUOMI NPP               
1 37849U 11061A   26066.13529837  .00000117  00000+0  76504-4 0  9992
2 37849  98.7868   7.7583 0000407 253.2273 106.8858 14.19542601743962
METEOSAT-10 (MSG-3)     
1 38552U 12035B   26065.79554338 -.00000008  00000+0  00000+0 0  9994
2 38552   4.4292  61.4529 0002490 283.3598 106.3340  1.00267966 49834
METOP-B                 
1 38771U 12049A   26066.12212548  .00000124  00000+0  76748-4 0  9999
2 38771  98.6647 119.5956 0001185 280.0234  80.0809 14.21443608698762
INSAT-3D                
1 39216U 13038B   26065.97683830 -.00000342  00000+0  00000+0 0  9997
2 39216   1.6618  83.8778 0001682 248.3082 313.6571  1.00272408 46055
FENGYUN 3C              
1 39260U 13052A   26066.20221772  .00000174  00000+0  10968-3 0  9992
2 39260  98.4889  44.8135 0013960 320.7842  39.2321 14.15728046644134
METEOR-M 2              
1 40069U 14037A   26066.14927023  .00000245  00000+0  13141-3 0  9995
2 40069  98.5025  45.5546 0005518 345.5180  14.5839 14.21427372604827
HIMAWARI-8              
1 40267U 14060A   26064.96764973 -.00000282  00000+0  00000+0 0  9990
2 40267   0.0252 238.2083 0000720  99.4681 315.0191  1.00271621 41726
FENGYUN 2G              
1 40367U 14090A   26066.02915513 -.00000304  00000+0  00000+0 0  9996
2 40367   5.3807  74.0559 0001657 149.1646  51.7161  1.00273777 40970
